NORAD_CAT_ID,OBJECT_NAME,OBJECT_TYPE,EPOCH,MEAN_MOTION,ECCENTRICITY,INCLINATION,RA_OF_ASC_NODE,ARG_OF_PERICENTER,MEAN_ANOMALY,BSTAR,MEAN_MOTION_DOT,MEAN_MOTION_DDOT,TLE_LINE0,TLE_LINE1,TLE_LINE2,SEMIMAJOR_AXIS,PERIOD,APOGEE,PERIGEE,DECAYED
52611.0,STARLINK-3980,PAYLOAD,2022-10-21 18:22:28,15.08838702,0.0001996,53.2187,67.9017,43.1132,317.0016,9.6441e-07,-2.73e-06,0.0,0 STARLINK-3980,1 52611U 22052P   22294.76560401 -.00000273  00000-0  96441-6 0  9997,2 52611  53.2187  67.9017 0001996  43.1132 317.0016 15.08838702 24356,6917.884,95.438,541.13,538.369,0.0
52611.0,STARLINK-3980,PAYLOAD,2022-10-22 03:54:46,15.08845879,0.0001934,53.219,66.1175,39.5184,320.5949,3.9462e-05,3.4e-06,0.0,0 STARLINK-3980,1 52611U 22052P   22295.16303754  .00000340  00000-0  39462-4 0  9990,2 52611  53.2190  66.1175 0001934  39.5184 320.5949 15.08845879 24788,6917.861999999999,95.437,541.065,538.39,0.0
52611.0,STARLINK-3980,PAYLOAD,2022-10-22 13:27:05,15.08842773,0.0002037,53.2186,64.3338,43.7113,316.4041,-4.013e-05,-9.27e-06,0.0,0 STARLINK-3980,1 52611U 22052P   22295.56048092 -.00000927  00000-0 -40130-4 0  9992,2 52611  53.2186  64.3338 0002037  43.7113 316.4041 15.08842773 24471,6917.871999999999,95.437,541.146,538.328,0.0
52611.0,STARLINK-3980,PAYLOAD,2022-10-22 15:02:28,15.08841819,0.0002089,53.2185,64.0365,43.9613,316.1545,-4.3671e-05,-9.83e-06,0.0,0 STARLINK-3980,1 52611U 22052P   22295.62672163 -.00000983  00000-0 -43671-4 0  9996,2 52611  53.2185  64.0365 0002089  43.9613 316.1545 15.08841819 24859,6917.875,95.437,541.185,538.295,0.0
52611.0,STARLINK-3980,PAYLOAD,2022-10-22 18:13:15,15.0883941,0.000224,53.2185,63.442,43.5909,316.526,-7.2508e-06,-4.04e-06,0.0,0 STARLINK-3980,1 52611U 22052P   22295.75920250 -.00000404  00000-0 -72508-5 0  9993,2 52611  53.2185  63.4420 0002240  43.5909 316.5260 15.08839410 24501,6917.882,95.438,541.297,538.198,0.0
52611.0,STARLINK-3980,PAYLOAD,2022-10-23 02:10:09,15.08844343,0.0002005999999999,53.2194,61.9556,42.6464,317.4684,0.00012314,1.672e-05,0.0,0 STARLINK-3980,1 52611U 22052P   22296.09039311  .00001672  00000-0  12314-3 0  9993,2 52611  53.2194  61.9556 0002006  42.6464 317.4684 15.08844343 24927,6917.8669999999975,95.437,541.12,538.344,0.0
52611.0,STARLINK-3980,PAYLOAD,2022-10-23 11:42:29,15.08840626,0.0001994,53.2191,60.17100000000001,41.3982,318.7161,5.9111e-05,6.53e-06,0.0,0 STARLINK-3980,1 52611U 22052P   22296.48783699  .00000653  00000-0  59111-4 0  9996,2 52611  53.2191  60.1710 0001994  41.3982 318.7161 15.08840626 24613,6917.878000000002,95.438,541.123,538.364,0.0
52611.0,STARLINK-3980,PAYLOAD,2022-10-23 18:04:01,15.08843326,0.0002021999999999,53.2191,58.9819,40.2255,319.8886,0.00011014,1.465e-05,0.0,0 STARLINK-3980,1 52611U 22052P   22296.75279374  .00001465  00000-0  11014-3 0  9997,2 52611  53.2191  58.9819 0002022  40.2255 319.8886 15.08843326 24652,6917.87,95.437,541.134,538.336,0.0
52611.0,STARLINK-3980,PAYLOAD,2022-10-24 09:57:52,15.08840035,0.0001464,53.2222,56.0079,4.312,355.7885,3.0353e-05,1.95e-06,0.0,0 STARLINK-3980,1 52611U 22052P   22297.41519208  .00000195  00000-0  30353-4 0  9991,2 52611  53.2222  56.0079 0001464   4.3120 355.7885 15.08840035 25120,6917.88,95.438,540.758,538.7330000000002,0.0
52611.0,STARLINK-3980,PAYLOAD,2022-10-24 14:44:04,15.0881335,0.0001889999999999,53.2198,55.1171,32.6508,327.4601,-0.00018664,-3.255e-05,0.0,0 STARLINK-3980,1 52611U 22052P   22297.61393935 -.00003255  00000-0 -18664-3 0  9992,2 52611  53.2198  55.1171 0001890  32.6508 327.4601 15.08813350 25157,6917.962,95.439,541.134,538.519,0.0
52611.0,STARLINK-3980,PAYLOAD,2022-10-24 17:54:50,15.08811141,0.0002091,53.2181,54.5244,36.3134,323.8,-0.00017022,-2.994e-05,0.0,0 STARLINK-3980,1 52611U 22052P   22297.74642189 -.00002994  00000-0 -17022-3 0  9990,2 52611  53.2181  54.5244 0002091  36.3134 323.8000 15.08811141 24803,6917.969,95.439,541.28,538.387,0.0
52611.0,STARLINK-3980,PAYLOAD,2022-10-25 08:13:18,15.08820196,0.0001915,53.2199,51.8458,34.542,325.5696,-0.00012169,-2.223e-05,0.0,0 STARLINK-3980,1 52611U 22052P   22298.34258008 -.00002223  00000-0 -12169-3 0  9992,2 52611  53.2199  51.8458 0001915  34.5420 325.5696 15.08820196 25262,6917.941,95.439,541.131,538.481,0.0
52611.0,STARLINK-3980,PAYLOAD,2022-10-25 11:24:04,15.08825881,0.0002069,53.2191,51.2508,38.9705,321.1436,-6.2946e-05,-1.289e-05,0.0,0 STARLINK-3980,1 52611U 22052P   22298.47505657 -.00001289  00000-0 -62946-4 0  9991,2 52611  53.2191  51.2508 0002069  38.9705 321.1436 15.08825881 24910,6917.924,95.438,541.22,538.357,0.0
52611.0,STARLINK-3980,PAYLOAD,2022-10-25 14:34:50,15.088302800000005,0.0002082,53.2192,50.6564,35.301,324.812,-2.1462e-05,-6.3e-06,0.0,0 STARLINK-3980,1 52611U 22052P   22298.60753363 -.00000630  00000-0 -21462-4 0  9992,2 52611  53.2192  50.6564 0002082  35.3010 324.8120 15.08830280 25304,6917.91,95.438,541.215,538.335,0.0
52611.0,STARLINK-3980,PAYLOAD,2022-10-26 11:14:51,15.08838109,0.0002311999999999,53.2186,46.7906,34.6249,325.4893,0.00017882,2.559e-05,0.0,0 STARLINK-3980,1 52611U 22052P   22299.46864602  .00002559  00000-0  17882-3 0  9996,2 52611  53.2186  46.7906 0002312  34.6249 325.4893 15.08838109 25431,6917.886,95.438,541.351,538.1519999999998,0.0
52611.0,STARLINK-3980,PAYLOAD,2022-10-26 14:25:37,15.08840218,0.0002284,53.2188,46.1958,34.2284,325.8855,0.00019116,2.755e-05,0.0,0 STARLINK-3980,1 52611U 22052P   22299.60112508  .00002755  00000-0  19116-3 0  9993,2 52611  53.2188  46.1958 0002284  34.2284 325.8855 15.08840218 25084,6917.88,95.438,541.325,538.165,0.0
52611.0,STARLINK-3980,PAYLOAD,2022-10-27 01:33:20,15.08824953,0.0002154,53.2192,44.1144,36.7786,323.3354,0.00031304,4.695e-05,0.0,0 STARLINK-3980,1 52611U 22052P   22300.06481558  .00004695  00000-0  31304-3 0  9998,2 52611  53.2192  44.1144 0002154  36.7786 323.3354 15.08824953 25528,6917.926,95.439,541.2819999999998,538.3009999999998,0.0
52611.0,STARLINK-3980,PAYLOAD,2022-10-27 09:30:15,15.08838891,0.000234,53.2192,42.6283,33.4367,326.6773,0.00011692,1.573e-05,0.0,0 STARLINK-3980,1 52611U 22052P   22300.39601415  .00001573  00000-0  11692-3 0  9990,2 52611  53.2192  42.6283 0002340  33.4367 326.6773 15.08838891 25203,6917.884,95.438,541.368,538.13,0.0
52611.0,STARLINK-3980,PAYLOAD,2022-10-28 02:59:29,15.08855957,0.0002085,53.2197,39.3558,37.0362,323.0774,6.596e-05,7.62e-06,0.0,0 STARLINK-3980,1 52611U 22052P   22301.12464338  .00000762  00000-0  65960-4 0  9990,2 52611  53.2197  39.3558 0002085  37.0362 323.0774 15.08855957 25683,6917.831999999999,95.437,541.139,538.254,0.0
52611.0,STARLINK-3980,PAYLOAD,2022-10-28 12:31:47,15.08855715,0.0002114,53.2199,37.5717,37.2465,322.8673,7.0217e-05,8.3e-06,0.0,0 STARLINK-3980,1 52611U 22052P   22301.52208029  .00000830  00000-0  70217-4 0  9994,2 52611  53.2199  37.5717 0002114  37.2465 322.8673 15.08855715 25374,6917.831999999999,95.437,541.16,538.235,0.0
52611.0,STARLINK-3980,PAYLOAD,2022-10-28 14:07:10,15.08855956,0.0002116,53.2199,37.2744,37.281,322.8329,6.8618e-05,8.04e-06,0.0,0 STARLINK-3980,1 52611U 22052P   22301.58831974  .00000804  00000-0  68618-4 0  9994,2 52611  53.2199  37.2744 0002116  37.2810 322.8329 15.08855956 25383,6917.831999999999,95.437,541.16,538.2330000000002,0.0
52611.0,STARLINK-3980,PAYLOAD,2022-10-28 23:39:29,15.08855045,0.0002234999999999,53.22,35.4905,35.2715,324.8424,-0.00011767,-2.161e-05,0.0,0 STARLINK-3980,1 52611U 22052P   22301.98576172 -.00002161  00000-0 -11767-3 0  9996,2 52611  53.2200  35.4905 0002235  35.2715 324.8424 15.08855045 25814,6917.834,95.437,541.246,538.153,0.0
52611.0,STARLINK-3980,PAYLOAD,2022-10-29 02:50:16,15.08848422,0.0002072,53.2203,34.8957,30.0325,330.0785,7.4062e-05,8.91e-06,0.0,0 STARLINK-3980,1 52611U 22052P   22302.11824186  .00000891  00000-0  74062-4 0  9997,2 52611  53.2203  34.8957 0002072  30.0325 330.0785 15.08848422 25467,6917.855,95.437,541.153,538.286,0.0
52611.0,STARLINK-3980,PAYLOAD,2022-10-29 15:33:20,15.08854242,0.0002078,53.2198,32.516,38.9836,321.1305,0.00011698,1.575e-05,0.0,0 STARLINK-3980,1 52611U 22052P   22302.64815443  .00001575  00000-0  11698-3 0  9996,2 52611  53.2198  32.5160 0002078  38.9836 321.1305 15.08854242 25546,6917.837,95.437,541.139,538.264,0.0
52611.0,STARLINK-3980,PAYLOAD,2022-10-30 10:37:59,15.08842361,0.0002335999999999,53.2186,28.9487,39.8201,320.2963,-0.00011874,-2.178e-05,0.0,0 STARLINK-3980,1 52611U 22052P   22303.44304482 -.00002178  00000-0 -11874-3 0  9999,2 52611  53.2186  28.9487 0002336  39.8201 320.2963 15.08842361 25669,6917.873000000001,95.437,541.354,538.122,0.0
52611.0,STARLINK-3980,PAYLOAD,2022-10-30 15:24:08,15.08833019,0.0001836,53.2189,28.0557,43.7704,316.3433,-0.00011207,-2.071e-05,0.0,0 STARLINK-3980,1 52611U 22052P   22303.64177008 -.00002071  00000-0 -11207-3 0  9995,2 52611  53.2189  28.0557 0001836  43.7704 316.3433 15.08833019 25698,6917.901999999999,95.438,541.0369999999998,538.497,0.0
52611.0,STARLINK-3980,PAYLOAD,2022-10-31 12:04:09,15.08843243,0.0002197,53.2192,24.1914,32.6204,327.4924,-4.3072e-05,-9.74e-06,0.0,0 STARLINK-3980,1 52611U 22052P   22304.50288270 -.00000974  00000-0 -43072-4 0  9991,2 52611  53.2192  24.1914 0002197  32.6204 327.4924 15.08843243 25822,6917.87,95.437,541.255,538.216,0.0
52611.0,STARLINK-3980,PAYLOAD,2022-10-31 15:14:55,15.0884357,0.0002340999999999,53.2191,23.5968,33.1677,326.9461,-8.9866e-06,-4.31e-06,0.0,0 STARLINK-3980,1 52611U 22052P   22304.63536270 -.00000431  00000-0 -89866-5 0  9991,2 52611  53.2191  23.5968 0002341  33.1677 326.9461 15.08843570 25849,6917.869000000002,95.437,541.354,538.115,0.0
52611.0,STARLINK-3980,PAYLOAD,2022-11-01 07:08:47,15.08833078,0.0002222,53.2196,20.6238,30.1326,329.9793,4.7862e-05,4.73e-06,0.0,0 STARLINK-3980,1 52611U 22052P   22305.29776748  .00000473  00000-0  47862-4 0  9993,2 52611  53.2196  20.6238 0002222  30.1326 329.9793 15.08833078 26314,6917.901999999999,95.438,541.304,538.229,0.0
